QIANFAN-9               
1 60387U 24140J   25259.58450751  .00000062  00000+0  76672-4 0  9992
2 60387  88.9793 308.3648 0018511  90.9477 269.3795 13.50969945 55567
QIANFAN-10              
1 60388U 24140K   25259.58860843  .00000053  00000+0  62848-4 0  9990
2 60388  88.9801 307.7036 0016688  71.2203 289.0757 13.50967312 55691
QIANFAN-11              
1 60389U 24140L   25259.55153315  .00000053  00000+0  62615-4 0  9999
2 60389  88.9729 308.3593 0016530  90.8918 269.4128 13.50967761 55346
QIANFAN-12              
1 60390U 24140M   25259.57205317  .00000064  00000+0  80723-4 0  9995
2 60390  88.9772 308.3624 0015388  97.9976 262.2922 13.50967748 55475
QIANFAN-13              
1 60391U 24140N   25259.54326976  .00000066  00000+0  83789-4 0  9995
2 60391  88.9784 308.4545 0015212 100.3608 259.9259 13.50967809 55495
QIANFAN-14              
1 60392U 24140P   25259.56788906  .00000060  00000+0  73507-4 0  9994
2 60392  88.9763 308.3682 0018900 100.2189 260.1095 13.50968727 55508
QIANFAN-15              
1 60393U 24140Q   25259.57618543  .00000068  00000+0  86177-4 0  9990
2 60393  88.9786 308.3033 0014635  88.5137 271.7690 13.50972201 55495
QIANFAN-16              
1 60394U 24140R   25259.56390307  .00000055  00000+0  65975-4 0  9994
2 60394  88.9790 308.4220 0016819 103.6055 256.6971 13.50967795 55401
